CTC2_L_00479001-01
1 67248U 23597IK  26037.47796296  .00000000  00000+0  00000-0 0  9990
2 67248  42.0000   0.0000 0000000   0.0000   0.0000 14.22769928    16
CTC2_L_00479002-01
1 67249U 25871NZ  26037.47796296  .00000000  00000+0  00000-0 0  9998
2 67249  42.0000  12.0000 0000000   0.0000  48.0000 14.22769928    12
CTC2_L_00479003-01
1 67250U 25474XC  26037.47796296  .00000000  00000+0  00000-0 0  9999
2 67250  42.0000  24.0000 0000000   0.0000  96.0000 14.22769928    10
CTC2_L_00479004-01
1 67251U 24600JP  26037.47796296  .00000000  00000+0  00000-0 0  9990
2 67251  42.0000  36.0000 0000000   0.0000 144.0000 14.22769928    18
CTC2_L_00479005-01
1 67252U 26869NS  26037.47796296  .00000000  00000+0  00000-0 0  9990
2 67252  42.0000  48.0000 0000000   0.0000 192.0000 14.22769928    15
CTC2_L_00479006-01
1 67253U 25269SW  26037.47796296  .00000000  00000+0  00000-0 0  9994
2 67253  42.0000  60.0000 0000000   0.0000 240.0000 14.22769928    14
CTC2_L_00479007-01
1 67254U 26721KT  26037.47796296  .00000000  00000+0  00000-0 0  9999
2 67254  42.0000  72.0000 0000000   0.0000 288.0000 14.22769928    10
CTC2_L_00479008-01
1 67255U 22174BV  26037.47796296  .00000000  00000+0  00000-0 0  9998
2 67255  42.0000  84.0000 0000000   0.0000 336.0000 14.22769928    18
CTC2_L_00479009-01
1 67256U 24967LO  26037.47796296  .00000000  00000+0  00000-0 0  9991
2 67256  42.0000  96.0000 0000000   0.0000  24.0000 14.22769928    16
CTC2_L_00479010-01
1 67257U 24355OG  26037.47796296  .00000000  00000+0  00000-0 0  9993
2 67257  42.0000 108.0000 0000000   0.0000  72.0000 14.22769928    14
CTC2_L_00479011-01
1 67258U 24784AQ  26037.47796296  .00000000  00000+0  00000-0 0  9990
2 67258  42.0000 120.0000 0000000   0.0000 120.0000 14.22769928    13
CTC2_L_00479012-01
1 67259U 23729KP  26037.47796296  .00000000  00000+0  00000-0 0  9999
2 67259  42.0000 132.0000 0000000   0.0000 168.0000 14.22769928    19
CTC2_L_00479013-01
1 67260U 26572KZ  26037.47796296  .00000000  00000+0  00000-0 0  9990
2 67260  42.0000 144.0000 0000000   0.0000 216.0000 14.22769928    18
CTC2_L_00479014-01
1 67261U 22021ML  26037.47796296  .00000000  00000+0  00000-0 0  9996
2 67261  42.0000 156.0000 0000000   0.0000 264.0000 14.22769928    15
CTC2_L_00479015-01
1 67262U 25859TD  26037.47796296  .00000000  00000+0  00000-0 0  9999
2 67262  42.0000 168.0000 0000000   0.0000 312.0000 14.22769928    13
CTC2_L_00479016-01
1 67263U 23474HA  26037.47796296  .00000000  00000+0  00000-0 0  9991
2 67263  42.0000 180.0000 0000000   0.0000   0.0000 14.22769928    12
CTC2_L_00479017-01
1 67264U 26193YW  26037.47796296  .00000000  00000+0  00000-0 0  9993
2 67264  42.0000 192.0000 0000000   0.0000  48.0000 14.22769928    18
CTC2_L_00479018-01
1 67265U 25954AA  26037.47796296  .00000000  00000+0  00000-0 0  9998
2 67265  42.0000 204.0000 0000000   0.0000  96.0000 14.22769928    16
CTC2_L_00479019-01
1 67266U 22038RA  26037.47796296  .00000000  00000+0  00000-0 0  9999
2 67266  42.0000 216.0000 0000000   0.0000 144.0000 14.22769928    14
CTC2_L_00479020-01
1 67267U 23921MZ  26037.47796296  .00000000  00000+0  00000-0 0  9992
2 67267  42.0000 228.0000 0000000   0.0000 192.0000 14.22769928    11
CTC2_L_00479021-01
1 67268U 24091JG  26037.47796296  .00000000  00000+0  00000-0 0  9992
2 67268  42.0000 240.0000 0000000   0.0000 240.0000 14.22769928    10
CTC2_L_00479022-01
1 67269U 25214RC  26037.47796296  .00000000  00000+0  00000-0 0  9991
2 67269  42.0000 252.0000 0000000   0.0000 288.0000 14.22769928    16
CTC2_L_00479023-01
1 67270U 24426LU  26037.47796296  .00000000  00000+0  00000-0 0  9997
2 67270  42.0000 264.0000 0000000   0.0000 336.0000 14.22769928    15
CTC2_L_00479024-01
1 67271U 22029XQ  26037.47796296  .00000000  00000+0  00000-0 0  9995
2 67271  42.0000 276.0000 0000000   0.0000  24.0000 14.22769928    13
CTC2_L_00479025-01
1 67272U 25904BI  26037.47796296  .00000000  00000+0  00000-0 0  9991
2 67272  42.0000 288.0000 0000000   0.0000  72.0000 14.22769928    10
CTC2_L_00479026-01
1 67273U 26627RI  26037.47796296  .00000000  00000+0  00000-0 0  9995
2 67273  42.0000 300.0000 0000000   0.0000 120.0000 14.22769928    10
CTC2_L_00479027-01
1 67274U 22281FW  26037.47796296  .00000000  00000+0  00000-0 0  9998
2 67274  42.0000 312.0000 0000000   0.0000 168.0000 14.22769928    16
CTC2_L_00479028-01
1 67275U 26513FY  26037.47796296  .00000000  00000+0  00000-0 0  9991
2 67275  42.0000 324.0000 0000000   0.0000 216.0000 14.22769928    14
CTC2_L_00479029-01
1 67276U 22149RU  26037.47796296  .00000000  00000+0  00000-0 0  9993
2 67276  42.0000 336.0000 0000000   0.0000 264.0000 14.22769928    11
CTC2_L_00479030-01
1 67277U 26642ND  26037.47796296  .00000000  00000+0  00000-0 0  9996
2 67277  42.0000 348.0000 0000000   0.0000 312.0000 14.22769928    19
